00442    9.98  0.15 K24AH 287.94420   86.25351  134.78326    6.06832  0.0704843  0.27446804   2.3449929  0 E2024-VG3  4874  59 1892-2024 0.72 M-v 3Ek MPCLINUX   0000    (442) Eichsfeldia        20241111
00443   10.12  0.15 K243V 325.03000  350.24709  175.39159    4.23515  0.0395989  0.29894739   2.2151656  0 MPO840817  4747  59 1899-2024 0.72 M-v 3Ek MPCLINUX   0000    (443) Photographica      20240607
00444    8.07  0.15 K24AH 293.38957  154.75688  195.59949   10.27260  0.1736753  0.21358290   2.7717777  0 E2024-S84  6705  72 1899-2024 0.59 M-v 3Ek MPCLINUX   0000    (444) Gyptis             20240925
00445    9.30  0.15 K24AH 346.67595   81.95343  291.97052   21.31510  0.1977736  0.17260747   3.1946968  0 E2024-VG3  7442  52 1899-2024 0.53 M-v 3Ek MPCLINUX   0000    (445) Edna               20241110
00446    8.87  0.15 K24AH 359.04345  279.23886   42.01611   10.61576  0.1248166  0.21177923   2.7874932  0 E2024-VG3 11296  55 1899-2024 0.45 M-v 3Ek MPCLINUX   0000    (446) Aeternitas         20241111
00447    9.09  0.15 K24AH  77.19304  316.83652   71.74234    4.79808  0.0459148  0.19105284   2.9856144  0 E2024-VG3  5856  72 1894-2024 0.68 M-v 3Ek MPCLINUX   0000    (447) Valentine          20241111
00448   10.22  0.15 K243V 166.61442  293.31981   37.18320   12.73224  0.1873423  0.17778979   3.1323108  0 MPO840817  4379  48 1899-2024 0.72 M-v 3Ek MPCLINUX   0000    (448) Natalie            20240616
00449    9.91  0.15 K24AH 136.00986   48.74634   85.76602    3.07928  0.1733986  0.24190100   2.5510028  0 E2024-V28  7102  57 1899-2024 0.62 M-v 3Ek MPCLINUX   0000    (449) Hamburga           20241031
00450   10.45  0.15 K24AH 326.13136  359.64330   14.33938   10.13273  0.0977273  0.18815822   3.0161568  0 E2024-VG3 11483  44 1899-2024 0.44 M-v 3Ek MPCLINUX   0000    (450) Brigitta           20241111
00451    6.81  0.15 K243V  74.64373  336.75492   89.00039   15.20664  0.0700178  0.18392971   3.0622087  0 MPO840817  3799  84 1899-2024 0.81 M-v 3Ek MPCLINUX   0000    (451) Patientia          20240706
00452   11.88  0.15 K24AH 280.86842   53.87774   92.43116    3.22564  0.0125719  0.20481152   2.8503605  0 E2024-VG3  4429  36 1899-2024 0.72 M-v 3Ek MPCLINUX   0000    (452) Hamiltonia         20241111
00453   10.61  0.15 K24AH 155.52293  220.28028   11.66691    5.55060  0.1089234  0.30552434   2.1832602  0 E2024-VG3  6712  44 1900-2024 0.59 M-v 3Ek MPCLINUX   0000    (453) Tea                20241111
00454    9.42  0.15 K24AH  72.48983  177.08822   32.16560    6.29218  0.1116225  0.23141419   2.6275000  0 E2024-VG3  7740  61 1900-2024 0.59 M-v 3Ek MPCLINUX   0000    (454) Mathesis           20241111
00455    8.96  0.15 K243V 137.55825  273.41745   76.07003   12.01798  0.2949071  0.22785460   2.6547941  0 MPO840817  5307  61 1900-2024 0.63 M-v 3Ek MPCLINUX   0000    (455) Bruchsalia         20240625
00456    9.14  0.15 K24AH 275.57294    7.79514  229.00133   14.49415  0.1831837  0.21226967   2.7831979  0 E2024-VE1  4915  55 1900-2024 0.69 M-v 3Ek MPCLINUX   0000    (456) Abnoba             20241110
00457   11.12  0.15 K24AH 283.93272  131.09747  249.39693   12.97512  0.1711758  0.18091714   3.0961090  0 E2024-V16  4390  32 1900-2024 0.70 M-v 3Ek MPCLINUX   0000    (457) Alleghenia         20241031
00458    9.78  0.15 K24AH 312.75743  277.32164  134.10577   12.65799  0.2432154  0.19053822   2.9909878  0 E2024-VG3  8298  50 1900-2024 0.51 M-v 3Ek MPCLINUX   0000    (458) Hercynia           20241111
00459   10.40  0.15 K24AH  67.38694   19.23807   29.45792   10.29971  0.2114481  0.23253641   2.6190397  0 E2024-VE1  4589  45 1900-2024 0.64 M-v 3Ek MPCLINUX   0000    (459) Signe              20241110
00460   10.76  0.15 K24AH 258.35247  161.85499  205.06774    4.63662  0.1039216  0.21989200   2.7185027  0 E2024-S35  4800  56 1900-2024 0.67 M-v 3Ek MPCLINUX   0000    (460) Scania             20240922
00461   10.50  0.15 K24AH 137.49032  308.75551  156.51492    1.47190  0.1456390  0.17899046   3.1182873  0 E2024-SH2  5195  54 1900-2024 0.71 M-v 3Ek MPCLINUX   0000    (461) Saskia             20240929
00462    9.34  0.15 K243V 149.59439  249.36411  105.20798    3.19072  0.0874330  0.20249599   2.8720484  0 MPO840817  4921  62 1900-2024 0.74 M-v 3Ek MPCLINUX   0000    (462) Eriphyla           20240624
00463   11.78  0.15 K243V  97.84985  329.50917   36.48972   13.54194  0.2200085  0.26548030   2.3976246  0 MPO840817  4863  33 1926-2024 0.44 M-v 3Ek MPCLINUX   0007    (463) Lola               20240604
00464    9.76  0.15 K243V 187.82241  258.00501  102.32827   10.16176  0.2043166  0.21005477   2.8027284  0 MPO840817  4651  46 1901-2024 0.68 M-v 3Ek MPCLINUX   0000    (464) Megaira            20240711
00465    9.87  0.15 K24AH 190.38665  285.07800  300.22284    4.64511  0.2017006  0.18018683   3.1044692  0 E2024-VG3  6055  53 1901-2024 0.64 M-v 3Ek MPCLINUX   0000    (465) Alekto             20241111
00466    8.45  0.15 K24AH 314.10665  255.64082  290.22534   19.01517  0.0968532  0.16065255   3.3512819  0 E2024-VE1  4289  51 1901-2024 0.74 M-v 3Ek MPCLINUX   0000    (466) Tisiphone          20241110
00467   10.94  0.15 K24AH 227.11170   94.46057  322.08282    6.44759  0.1067799  0.19495855   2.9456051  0 E2024-UB5  9409  43 1901-2024 0.47 M-v 3Ek MPCLINUX   0000    (467) Laura              20241024
00468    9.84  0.15 K24AH 202.53238  332.28377   21.55540    0.43591  0.1952767  0.17755169   3.1351104  0 E2024-VB0  7314  60 1901-2024 0.64 M-v 3Ek MPCLINUX   0000    (468) Lina               20240707
00469    8.69  0.15 K24AH 307.46239  215.58880  332.67091   11.45355  0.1614029  0.17392364   3.1785592  0 E2024-VG3  4625  56 1901-2024 0.72 M-v 3Ek MPCLINUX   0000    (469) Argentina          20241111
00470   10.06  0.15 K24AH  31.68605   47.52553  173.19579    7.23286  0.0959454  0.26432920   2.4045803  0 E2024-S24  6239  54 1901-2024 0.65 M-v 3Ek MPCLINUX   0000    (470) Kilia              20240919
00471    6.33  0.15 K24AH 286.42341  315.82890   83.77236   15.01910  0.2291034  0.20069395   2.8892150  0 E2024-VG3  7991  74 1901-2024 0.56 M-v 3Ek MPCLINUX   0000    (471) Papagena           20241111
00472    8.90  0.15 K24AH  22.40074  296.05706  127.00235   15.81212  0.0957962  0.24287508   2.5441775  0 E2024-VE1  4602  56 1901-2024 0.73 M-v 3Ek MPCLINUX   0000    (472) Roma               20241110
00473   11.71  0.15 K24AH 188.77113  153.61720  332.05804   12.93681  0.1082777  0.22701137   2.6613642  0 E2024-VG3  4608  28 1901-2024 0.64 M-v 3Ek MPCLINUX   0000    (473) Nolli              20241111
00474   10.95  0.15 K243V 215.14988  155.92820  161.79766    8.79695  0.2105045  0.25659763   2.4526427  0 MPO840818  5347  49 1901-2024 0.68 M-v 3Ek MPCLINUX   0000    (474) Prudentia          20240707
00475   11.60  0.15 K24AH 161.24904  305.89123   34.39951   18.95346  0.3792821  0.23608181   2.5927523  0 E2024-V28  5498  38 1918-2024 0.59 M-v 3Ek MPCLINUX   0005    (475) Ocllo              20241101
00476    8.71  0.15 K243V 196.46057    0.82731  286.18311   10.92564  0.0748720  0.22863610   2.6487411  0 MPO840818  7394  65 1901-2024 0.40 M-v 3Ek MPCLINUX   0000    (476) Hedwig             20240528
00477   10.27  0.15 K243V 239.24710  322.49108   10.64637    5.28870  0.1875879  0.26247340   2.4159013  0 MPO840818  4598  51 1901-2024 0.70 M-v 3Ek MPCLINUX   0000    (477) Italia             20240711
00478    7.96  0.15 K243V  39.14534  243.55290  233.44393   13.17688  0.0805325  0.18807309   3.0170669  0 MPO840818  3945  63 1901-2024 0.76 M-v 3Ek MPCLINUX   0000    (478) Tergeste           20240703
00479    9.82  0.15 K243V  97.04572  269.34211  135.99928    8.67822  0.2180839  0.21961571   2.7207823  0 MPO840818  6252  57 1901-2024 0.58 M-v 3Ek MPCLINUX   0000    (479) Caprera            20240711
00480    8.29  0.15 K24AH  55.57941  211.92261  237.11042   21.32665  0.0444800  0.22935686   2.6431891  0 E2024-VE1  4661  58 1901-2024 0.72 M-v 3Ek MPCLINUX   0000    (480) Hansa              20241110
00481    8.83  0.15 K24AH  73.95720  348.83977   66.69083    9.84932  0.1575094  0.21738594   2.7393556  0 E2024-VE1  6489  63 1902-2024 0.61 M-v 3Ek MPCLINUX   0000    (481) Emita              20241110
00482    8.94  0.15 K24AH 134.39527   88.71891  179.33838   14.46015  0.0958869  0.18946355   3.0022874  0 E2024-VE1  5395  53 1902-2024 0.66 M-v 3Ek MPCLINUX   0000    (482) Petrina            20241110
00483    8.44  0.15 K24AH 312.66339  163.73320  173.89231   18.75103  0.0505577  0.15544428   3.4257280  0 E2024-VE1  8088  58 1902-2024 0.55 M-v 3Ek MPCLINUX   0000    (483) Seppina            20241110
00484    9.69  0.15 K24AH 305.40756  189.44240  127.22971   12.51226  0.0570596  0.22614768   2.6681360  0 E2024-S35  4620  54 1902-2024 0.69 M-v 3Ek MPCLINUX   0000    (484) Pittsburghia       20240922
00485    8.28  0.15 K243V   4.05318  271.87624  193.38286   13.86826  0.1894279  0.21608311   2.7503555  0 MPO840818  4028  64 1904-2024 0.62 M-v 3Ek MPCLINUX   0000    (485) Genua              20240516
00486   11.16  0.15 K243V 295.85888  125.26736   94.06807   11.09536  0.1633995  0.27335069   2.3513788  0 MPO840818  5368  48 1902-2024 0.62 M-v 3Ek MPCLINUX   0000    (486) Cremona            20240625
00487    8.44  0.15 K24AH 279.61929  281.70164  114.75131   10.25310  0.0862698  0.22591691   2.6699526  0 E2024-VG3 11458  66 1902-2024 0.45 M-v 3Ek MPCLINUX   0000    (487) Venetia            20241111
00488    7.88  0.15 K24AH 355.93761   77.18538   82.98134   11.47630  0.1581405  0.17496624   3.1659196  0 E2024-VC2  3877  68 1901-2024 0.79 M-v 3Ek MPCLINUX   0000    (488) Kreusa             20241109
00489    8.62  0.15 K24AH  94.61579    8.36283  166.68322   12.99111  0.0485126  0.17607979   3.1525577  0 E2024-U15  8030  54 1902-2024 0.56 M-v 3Ek MPCLINUX   0000    (489) Comacina           20241017
00490    8.70  0.15 K243V 160.32904  193.64426  178.04079    9.29294  0.0891140  0.17432140   3.1737222  0 MPO840818  8096  67 1902-2024 0.56 M-v 3Ek MPCLINUX   0000    (490) Veritas            20240708
